NORAD_CAT_ID,OBJECT_NAME,OBJECT_TYPE,EPOCH,MEAN_MOTION,ECCENTRICITY,INCLINATION,RA_OF_ASC_NODE,ARG_OF_PERICENTER,MEAN_ANOMALY,BSTAR,MEAN_MOTION_DOT,MEAN_MOTION_DDOT,TLE_LINE0,TLE_LINE1,TLE_LINE2,SEMIMAJOR_AXIS,PERIOD,APOGEE,PERIGEE,DECAYED
50207.0,STARLINK-3262,PAYLOAD,2022-05-14 16:00:00,15.08826717,0.0001871,53.2193,21.6104,51.9815,13.784,0.0028404,0.00045191,0.0,0 STARLINK-3262,1 50207U 21125BD  22134.66667824  .00045191  00000-0  28404-2 0  9992,2 50207  53.2193  21.6104 0001871  51.9815  13.7840 15.08826717 24126,6917.920999999999,95.438,541.08,538.492,0.0
50207.0,STARLINK-3262,PAYLOAD,2022-05-14 22:00:00,15.08852631,0.0001998,53.2191,20.4897,47.9202,296.5364,-0.00028122,-4.763e-05,0.0,0 STARLINK-3262,1 50207U 21125BD  22134.91667824 -.00004763  00000-0 -28122-3 0  9990,2 50207  53.2191  20.4897 0001998  47.9202 296.5364 15.08852631  1306,6917.842,95.437,541.089,538.325,0.0
50207.0,STARLINK-3262,PAYLOAD,2022-05-15 06:00:00,15.08880446,0.0001948,53.2186,18.9935,44.0275,312.0252,-0.0041338,-0.00065553,0.0,0 STARLINK-3262,1 50207U 21125BD  22135.25001157 -.00065553  00000-0 -41338-2 0  9996,2 50207  53.2186  18.9935 0001948  44.0275 312.0252 15.08880446 24218,6917.757,95.435,540.969,538.274,0.0
50207.0,STARLINK-3262,PAYLOAD,2022-05-15 14:00:01,15.08810356,0.0001876,53.2178,17.4975,49.7952,317.905,-0.002304,-0.00036741,0.0,0 STARLINK-3262,1 50207U 21125BD  22135.58335648 -.00036741  00000-0 -23040-2 0  9994,2 50207  53.2178  17.4975 0001876  49.7952 317.9050 15.08810356 24269,6917.971,95.439,541.134,538.538,0.0
50207.0,STARLINK-3262,PAYLOAD,2022-05-15 22:00:00,15.08853648,0.0001879,53.2185,16.0011,45.5664,333.6713,-0.0016602999999999,-0.00026625,0.0,0 STARLINK-3262,1 50207U 21125BD  22135.91667824 -.00026625  00000-0 -16603-2 0  9992,2 50207  53.2185  16.0011 0001879  45.5664 333.6713 15.08853648 24318,6917.839,95.437,541.004,538.404,0.0
50207.0,STARLINK-3262,PAYLOAD,2022-05-16 14:00:01,15.088134599999998,0.0001896,53.218,13.0067,52.5237,349.9065,0.00087306,0.00013624,0.0,0 STARLINK-3262,1 50207U 21125BD  22136.58334491  .00013624  00000-0  87306-3 0  9999,2 50207  53.2180  13.0067 0001896  52.5237 349.9065 15.08813460  1306,6917.962,95.439,541.138,538.515,0.0
50207.0,STARLINK-3262,PAYLOAD,2022-05-16 22:00:00,15.08818124,0.0002116,53.2181,11.5122,50.2873,3.7172,-4.6264e-05,-1.024e-05,0.0,0 STARLINK-3262,1 50207U 21125BD  22136.91667824 -.00001024  00000-0 -46264-4 0  9997,2 50207  53.2181  11.5122 0002116  50.2873   3.7172 15.08818124 24467,6917.946999999999,95.439,541.276,538.3480000000002,0.0
50207.0,STARLINK-3262,PAYLOAD,2022-05-17 14:00:01,15.08835372,0.0001986,53.218,8.5175,53.5476,23.6763,0.0013976,0.00022022,0.0,0 STARLINK-3262,1 50207U 21125BD  22137.58335648  .00022022  00000-0  13976-2 0  9998,2 50207  53.2180   8.5175 0001986  53.5476  23.6763 15.08835372 24561,6917.895,95.438,541.133,538.386,0.0
50207.0,STARLINK-3262,PAYLOAD,2022-05-17 22:00:01,15.088394400000002,0.0002082,53.218,7.0229,48.5504,40.2844,-4.045800000000001e-05,-9.32e-06,0.0,0 STARLINK-3262,1 50207U 21125BD  22137.91668981 -.00000932  00000-0 -40458-4 0  9999,2 50207  53.2180   7.0229 0002082  48.5504  40.2844 15.08839440  1301,6917.882,95.438,541.187,538.307,0.0
50207.0,STARLINK-3262,PAYLOAD,2022-05-18 14:00:01,15.0884312,0.0001921,53.2183,4.0282,51.012,60.9574,0.00071107,0.00011048,0.0,0 STARLINK-3262,1 50207U 21125BD  22138.58334491  .00011048  00000-0  71107-3 0  9991,2 50207  53.2183   4.0282 0001921  51.0120  60.9574 15.08843120 24713,6917.871,95.437,541.065,538.4069999999998,0.0
50207.0,STARLINK-3262,PAYLOAD,2022-05-18 22:00:00,15.08842326,0.0002117,53.2184,2.5336,47.56100000000001,76.0109,-0.0014029,-0.00022548,0.0,0 STARLINK-3262,1 50207U 21125BD  22138.91667824 -.00022548  00000-0 -14029-2 0  9995,2 50207  53.2184   2.5336 0002117  47.5610  76.0109 15.08842326  1308,6917.873000000001,95.437,541.203,538.274,0.0
50207.0,STARLINK-3262,PAYLOAD,2022-05-19 06:00:00,15.08835503,0.0002021,53.2184,1.0366,45.7039,89.4526,-0.000951,-0.0001539,0.0,0 STARLINK-3262,1 50207U 21125BD  22139.25001157 -.00015390  00000-0 -95100-3 0  9991,2 50207  53.2184   1.0366 0002021  45.7039  89.4526 15.08835503 24815,6917.894,95.438,541.1569999999998,538.361,0.0
50207.0,STARLINK-3262,PAYLOAD,2022-05-19 14:00:01,15.08821449,0.0001867,53.2188,359.5389,49.9855,96.8159,0.00058654,9.054e-05,0.0,0 STARLINK-3262,1 50207U 21125BD  22139.58335648  .00009054  00000-0  58654-3 0  9993,2 50207  53.2188 359.5389 0001867  49.9855  96.8159 15.08821449  1301,6917.937,95.439,541.094,538.511,0.0
50207.0,STARLINK-3262,PAYLOAD,2022-05-19 22:00:00,15.0882234,0.0002016,53.2189,358.0445,44.192,114.1292,0.0011211,0.00017591,0.0,0 STARLINK-3262,1 50207U 21125BD  22139.91667824  .00017591  00000-0  11211-2 0  9996,2 50207  53.2189 358.0445 0002016  44.1920 114.1292 15.08822340  1309,6917.934,95.439,541.194,538.405,0.0
50207.0,STARLINK-3262,PAYLOAD,2022-05-20 06:00:00,15.08863073,0.0001922,53.2188,356.5474,43.9552,125.9415,-0.0017697,-0.00028361,0.0,0 STARLINK-3262,1 50207U 21125BD  22140.25001157 -.00028361  00000-0 -17697-2 0  9999,2 50207  53.2188 356.5474 0001922  43.9552 125.9415 15.08863073 24968,6917.81,95.436,541.004,538.345,0.0
50207.0,STARLINK-3262,PAYLOAD,2022-05-20 14:00:01,15.08851653,0.0001812,53.2192,355.05,48.8762,132.6359,-0.001301,-0.00020941,0.0,0 STARLINK-3262,1 50207U 21125BD  22140.58334491 -.00020941  00000-0 -13010-2 0  9996,2 50207  53.2192 355.0500 0001812  48.8762 132.6359 15.08851653  1308,6917.845,95.437,540.9630000000002,538.456,0.0
50207.0,STARLINK-3262,PAYLOAD,2022-05-20 22:00:00,15.08850756,0.0001877,53.2191,353.5554,39.9361,153.188,-0.0016607,-0.00026629,0.0,0 STARLINK-3262,1 50207U 21125BD  22140.91667824 -.00026629  00000-0 -16607-2 0  9996,2 50207  53.2191 353.5554 0001877  39.9361 153.1880 15.08850756 25065,6917.848000000001,95.437,541.011,538.414,0.0
50207.0,STARLINK-3262,PAYLOAD,2022-05-21 06:00:00,15.08863513,0.0001712,53.2189,352.0581,37.7435,166.9703,-0.0034878,-0.00055406,0.0,0 STARLINK-3262,1 50207U 21125BD  22141.25001157 -.00055406  00000-0 -34878-2 0  9990,2 50207  53.2189 352.0581 0001712  37.7435 166.9703 15.08863513  1304,6917.809,95.436,540.8580000000002,538.489,0.0
50207.0,STARLINK-3262,PAYLOAD,2022-05-21 14:00:01,15.08817898,0.0001561,53.2192,350.5611,41.7642,174.6127,0.0019942,0.00031573,0.0,0 STARLINK-3262,1 50207U 21125BD  22141.58335648  .00031573  00000-0  19942-2 0  9993,2 50207  53.2192 350.5611 0001561  41.7642 174.6127 15.08817898 25163,6917.948,95.439,540.893,538.7330000000002,0.0
50207.0,STARLINK-3262,PAYLOAD,2022-05-21 22:00:00,15.08825418,0.0001807,53.2191,349.0666,37.0798,190.8228,-0.00057466,-9.419e-05,0.0,0 STARLINK-3262,1 50207U 21125BD  22141.91667824 -.00009419  00000-0 -57466-3 0  9994,2 50207  53.2191 349.0666 0001807  37.0798 190.8228 15.08825418  1307,6917.925,95.438,541.04,538.54,0.0
50207.0,STARLINK-3262,PAYLOAD,2022-05-22 06:00:00,15.08837893,0.0001727,53.2187,347.5693,39.3995,200.0729,-0.0011553,-0.00018627,0.0,0 STARLINK-3262,1 50207U 21125BD  22142.25001157 -.00018627  00000-0 -11553-2 0  9990,2 50207  53.2187 347.5693 0001727  39.3995 200.0729 15.08837893 25261,6917.887,95.438,540.947,538.557,0.0
50207.0,STARLINK-3262,PAYLOAD,2022-05-22 14:00:01,15.08835899,0.0001686,53.2189,346.0725,46.495,204.5574,-0.00080169,-0.00013023,0.0,0 STARLINK-3262,1 50207U 21125BD  22142.58334491 -.00013023  00000-0 -80169-3 0  9991,2 50207  53.2189 346.0725 0001686  46.4950 204.5574 15.08835899  1307,6917.893,95.438,540.924,538.592,0.0
50207.0,STARLINK-3262,PAYLOAD,2022-05-22 22:00:01,15.08817719,0.0001941,53.2186,344.57800000000015,41.995,220.7174,0.0022216,0.00035225,0.0,0 STARLINK-3262,1 50207U 21125BD  22142.91668981  .00035225  00000-0  22216-2 0  9996,2 50207  53.2186 344.5780 0001941  41.9950 220.7174 15.08817719 25372,6917.948,95.439,541.156,538.471,0.0
50207.0,STARLINK-3262,PAYLOAD,2022-05-23 14:00:01,15.08832286,0.0001846,53.2183,341.5838,50.3105,235.4995,0.001248,0.00019626,0.0,0 STARLINK-3262,1 50207U 21125BD  22143.58334491  .00019626  00000-0  12480-2 0  9995,2 50207  53.2183 341.5838 0001846  50.3105 235.4995 15.08832286  1307,6917.904,95.438,541.0459999999998,538.492,0.0
50207.0,STARLINK-3262,PAYLOAD,2022-05-23 16:00:00,15.08848173,0.000188,53.2184,341.2103,48.2873,330.416,-0.0006429,-0.00010508,0.0,0 STARLINK-3262,1 50207U 21125BD  22143.66667824 -.00010508  00000-0 -64290-3 0  9992,2 50207  53.2184 341.2103 0001880  48.2873 330.4160 15.08848173 25483,6917.855,95.437,541.021,538.42,0.0
50207.0,STARLINK-3262,PAYLOAD,2022-05-23 22:00:01,15.08836873,0.0002012,53.2182,340.0893,43.8419,253.6237,3.5334000000000004e-05,2.74e-06,0.0,0 STARLINK-3262,1 50207U 21125BD  22143.91668981  .00000274  00000-0  35334-4 0  9990,2 50207  53.2182 340.0893 0002012  43.8419 253.6237 15.08836873  1309,6917.89,95.438,541.1469999999998,538.363,0.0
50207.0,STARLINK-3262,PAYLOAD,2022-05-24 14:00:01,15.08854455,0.0001786,53.218,337.095,46.5948,273.9764,-0.0017587,-0.0002818,0.0,0 STARLINK-3262,1 50207U 21125BD  22144.58334491 -.00028180  00000-0 -17587-2 0  9996,2 50207  53.2180 337.0950 0001786  46.5948 273.9764 15.08854455  1307,6917.8359999999975,95.437,540.937,538.466,0.0
50207.0,STARLINK-3262,PAYLOAD,2022-05-24 22:00:00,15.08807156,0.0001963,53.218,335.6005,39.7006,292.4761,0.0024531,0.00038934,0.0,0 STARLINK-3262,1 50207U 21125BD  22144.91667824  .00038934  00000-0  24531-2 0  9995,2 50207  53.2180 335.6005 0001963  39.7006 292.4761 15.08807156 25673,6917.981,95.44,541.2040000000002,538.488,0.0
50207.0,STARLINK-3262,PAYLOAD,2022-05-25 14:00:01,15.08866398,0.00018,53.218,332.6061,43.451,311.8851,-0.0012415999999999,-0.00020008,0.0,0 STARLINK-3262,1 50207U 21125BD  22145.58334491 -.00020008  00000-0 -12416-2 0  9994,2 50207  53.2180 332.6061 0001800  43.4510 311.8851 15.08866398  1307,6917.8,95.436,540.91,538.419,0.0
